[
  {
    "CCSDS_OMM_VERS": "3.0",
    "COMMENT": "GENERATED VIA SPACE-TRACK.ORG API",
    "CREATION_DATE": "2026-02-19T17:59:09",
    "ORIGINATOR": "18 SPCS",
    "OBJECT_NAME": "COSMOS 1852",
    "OBJECT_ID": "1987-051A",
    "CENTER_NAME": "EARTH",
    "REF_FRAME": "TEME",
    "TIME_SYSTEM": "UTC",
    "MEAN_ELEMENT_THEORY": "SGP4",
    "EPOCH": "2026-02-19T15:28:38.513280",
    "MEAN_MOTION": "12.44884324",
    "ECCENTRICITY": "0.00165319",
    "INCLINATION": "74.0023",
    "RA_OF_ASC_NODE": "278.8920",
    "ARG_OF_PERICENTER": "121.8006",
    "MEAN_ANOMALY": "238.4655",
    "EPHEMERIS_TYPE": "0",
    "CLASSIFICATION_TYPE": "U",
    "NORAD_CAT_ID": "18113",
    "ELEMENT_SET_NO": "999",
    "REV_AT_EPOCH": "75780",
    "BSTAR": "0.00012812764000",
    "MEAN_MOTION_DOT": "0.00000003",
    "MEAN_MOTION_DDOT": "0.0000000000000",
    "SEMIMAJOR_AXIS": "7864.103",
    "PERIOD": "115.673",
    "APOAPSIS": "1498.969",
    "PERIAPSIS": "1472.967",
    "OBJECT_TYPE": "PAYLOAD",
    "RCS_SIZE": "MEDIUM",
    "COUNTRY_CODE": "CIS",
    "LAUNCH_DATE": "1987-06-16",
    "SITE": "PKMTR",
    "DECAY_DATE": null,
    "FILE": "5039972",
    "GP_ID": "313160119",
    "TLE_LINE0": "0 COSMOS 1852",
    "TLE_LINE1": "1 18113U 87051A   26050.64489020  .00000003  00000-0  12813-3 0  9992",
    "TLE_LINE2": "2 18113  74.0023 278.8920 0016532 121.8006 238.4655 12.44884324757803"
  },
  {
    "CCSDS_OMM_VERS": "3.0",
    "COMMENT": "GENERATED VIA SPACE-TRACK.ORG API",
    "CREATION_DATE": "2026-02-19T17:59:09",
    "ORIGINATOR": "18 SPCS",
    "OBJECT_NAME": "STARLINK-34944",
    "OBJECT_ID": "2025-175J",
    "CENTER_NAME": "EARTH",
    "REF_FRAME": "TEME",
    "TIME_SYSTEM": "UTC",
    "MEAN_ELEMENT_THEORY": "SGP4",
    "EPOCH": "2026-02-19T15:28:30.922176",
    "MEAN_MOTION": "15.05651968",
    "ECCENTRICITY": "0.00023348",
    "INCLINATION": "97.6027",
    "RA_OF_ASC_NODE": "284.8498",
    "ARG_OF_PERICENTER": "81.3185",
    "MEAN_ANOMALY": "278.8306",
    "EPHEMERIS_TYPE": "0",
    "CLASSIFICATION_TYPE": "U",
    "NORAD_CAT_ID": "65182",
    "ELEMENT_SET_NO": "999",
    "REV_AT_EPOCH": "2992",
    "BSTAR": "0.00013008144000",
    "MEAN_MOTION_DOT": "0.00001817",
    "MEAN_MOTION_DDOT": "0.0000000000000",
    "SEMIMAJOR_AXIS": "6927.642",
    "PERIOD": "95.640",
    "APOAPSIS": "551.125",
    "PERIAPSIS": "547.890",
    "OBJECT_TYPE": "PAYLOAD",
    "RCS_SIZE": "LARGE",
    "COUNTRY_CODE": "US",
    "LAUNCH_DATE": "2025-08-14",
    "SITE": "AFWTR",
    "DECAY_DATE": null,
    "FILE": "5039972",
    "GP_ID": "313185267",
    "TLE_LINE0": "0 STARLINK-34944",
    "TLE_LINE1": "1 65182U 25175J   26050.64480234  .00001817  00000-0  13008-3 0  9998",
    "TLE_LINE2": "2 65182  97.6027 284.8498 0002335  81.3185 278.8306 15.05651968 29929"
  },
  {
    "CCSDS_OMM_VERS": "3.0",
    "COMMENT": "GENERATED VIA SPACE-TRACK.ORG API",
    "CREATION_DATE": "2026-02-19T17:59:09",
    "ORIGINATOR": "18 SPCS",
    "OBJECT_NAME": "COSMOS 2180",
    "OBJECT_ID": "1992-008A",
    "CENTER_NAME": "EARTH",
    "REF_FRAME": "TEME",
    "TIME_SYSTEM": "UTC",
    "MEAN_ELEMENT_THEORY": "SGP4",
    "EPOCH": "2026-02-19T15:27:58.937760",
    "MEAN_MOTION": "13.73954907",
    "ECCENTRICITY": "0.00364325",
    "INCLINATION": "82.9284",
    "RA_OF_ASC_NODE": "308.6376",
    "ARG_OF_PERICENTER": "299.8511",
    "MEAN_ANOMALY": "71.2896",
    "EPHEMERIS_TYPE": "0",
    "CLASSIFICATION_TYPE": "U",
    "NORAD_CAT_ID": "21875",
    "ELEMENT_SET_NO": "999",
    "REV_AT_EPOCH": "70468",
    "BSTAR": "0.00005217268600",
    "MEAN_MOTION_DOT": "0.00000064",
    "MEAN_MOTION_DDOT": "0.0000000000000",
    "SEMIMAJOR_AXIS": "7363.543",
    "PERIOD": "104.807",
    "APOAPSIS": "1012.236",
    "PERIAPSIS": "958.581",
    "OBJECT_TYPE": "PAYLOAD",
    "RCS_SIZE": "LARGE",
    "COUNTRY_CODE": "CIS",
    "LAUNCH_DATE": "1992-02-17",
    "SITE": "PKMTR",
    "DECAY_DATE": null,
    "FILE": "5039972",
    "GP_ID": "313160745",
    "TLE_LINE0": "0 COSMOS 2180",
    "TLE_LINE1": "1 21875U 92008A   26050.64443215  .00000064  00000-0  52173-4 0  9996",
    "TLE_LINE2": "2 21875  82.9284 308.6376 0036433 299.8511  71.2896 13.73954907704681"
  },
  {
    "CCSDS_OMM_VERS": "3.0",
    "COMMENT": "GENERATED VIA SPACE-TRACK.ORG API",
    "CREATION_DATE": "2026-02-19T17:59:09",
    "ORIGINATOR": "18 SPCS",
    "OBJECT_NAME": "YAOGAN 29",
    "OBJECT_ID": "2015-069A",
    "CENTER_NAME": "EARTH",
    "REF_FRAME": "TEME",
    "TIME_SYSTEM": "UTC",
    "MEAN_ELEMENT_THEORY": "SGP4",
    "EPOCH": "2026-02-19T15:27:50.370336",
    "MEAN_MOTION": "14.82976065",
    "ECCENTRICITY": "0.00027845",
    "INCLINATION": "98.0160",
    "RA_OF_ASC_NODE": "79.0235",
    "ARG_OF_PERICENTER": "65.6659",
    "MEAN_ANOMALY": "294.4844",
    "EPHEMERIS_TYPE": "0",
    "CLASSIFICATION_TYPE": "U",
    "NORAD_CAT_ID": "41038",
    "ELEMENT_SET_NO": "999",
    "REV_AT_EPOCH": "55320",
    "BSTAR": "0.00012417123000",
    "MEAN_MOTION_DOT": "0.00000954",
    "MEAN_MOTION_DDOT": "0.0000000000000",
    "SEMIMAJOR_AXIS": "6998.083",
    "PERIOD": "97.102",
    "APOAPSIS": "621.896",
    "PERIAPSIS": "617.999",
    "OBJECT_TYPE": "PAYLOAD",
    "RCS_SIZE": "LARGE",
    "COUNTRY_CODE": "PRC",
    "LAUNCH_DATE": "2015-11-26",
    "SITE": "TSC",
    "DECAY_DATE": null,
    "FILE": "5039972",
    "GP_ID": "313170525",
    "TLE_LINE0": "0 YAOGAN 29",
    "TLE_LINE1": "1 41038U 15069A   26050.64433299  .00000954  00000-0  12417-3 0  9996",
    "TLE_LINE2": "2 41038  98.0160  79.0235 0002785  65.6659 294.4844 14.82976065553205"
  },
  {
    "CCSDS_OMM_VERS": "3.0",
    "COMMENT": "GENERATED VIA SPACE-TRACK.ORG API",
    "CREATION_DATE": "2026-02-19T17:59:09",
    "ORIGINATOR": "18 SPCS",
    "OBJECT_NAME": "OPS 5712 (P/L 152)",
    "OBJECT_ID": "1967-053G",
    "CENTER_NAME": "EARTH",
    "REF_FRAME": "TEME",
    "TIME_SYSTEM": "UTC",
    "MEAN_ELEMENT_THEORY": "SGP4",
    "EPOCH": "2026-02-19T15:27:37.011168",
    "MEAN_MOTION": "13.98498499",
    "ECCENTRICITY": "0.00101286",
    "INCLINATION": "69.9747",
    "RA_OF_ASC_NODE": "302.6846",
    "ARG_OF_PERICENTER": "296.5964",
    "MEAN_ANOMALY": "79.2158",
    "EPHEMERIS_TYPE": "0",
    "CLASSIFICATION_TYPE": "U",
    "NORAD_CAT_ID": "2873",
    "ELEMENT_SET_NO": "999",
    "REV_AT_EPOCH": "99208",
    "BSTAR": "0.00009240258900",
    "MEAN_MOTION_DOT": "0.00000079",
    "MEAN_MOTION_DDOT": "0.0000000000000",
    "SEMIMAJOR_AXIS": "7277.136",
    "PERIOD": "102.968",
    "APOAPSIS": "906.372",
    "PERIAPSIS": "891.631",
    "OBJECT_TYPE": "PAYLOAD",
    "RCS_SIZE": "MEDIUM",
    "COUNTRY_CODE": "US",
    "LAUNCH_DATE": "1967-05-31",
    "SITE": "AFWTR",
    "DECAY_DATE": null,
    "FILE": "5039972",
    "GP_ID": "313155840",
    "TLE_LINE0": "0 OPS 5712 (P/L 152)",
    "TLE_LINE1": "1 02873U 67053G   26050.64417837  .00000079  00000-0  92403-4 0  9992",
    "TLE_LINE2": "2 02873  69.9747 302.6846 0010129 296.5964  79.2158 13.98498499992081"
  },
  {
    "CCSDS_OMM_VERS": "3.0",
    "COMMENT": "GENERATED VIA SPACE-TRACK.ORG API",
    "CREATION_DATE": "2026-02-19T17:59:09",
    "ORIGINATOR": "18 SPCS",
    "OBJECT_NAME": "COSMOS 1394",
    "OBJECT_ID": "1982-073G",
    "CENTER_NAME": "EARTH",
    "REF_FRAME": "TEME",
    "TIME_SYSTEM": "UTC",
    "MEAN_ELEMENT_THEORY": "SGP4",
    "EPOCH": "2026-02-19T15:27:29.955744",
    "MEAN_MOTION": "12.45190214",
    "ECCENTRICITY": "0.00137497",
    "INCLINATION": "74.0161",
    "RA_OF_ASC_NODE": "304.2165",
    "ARG_OF_PERICENTER": "334.7849",
    "MEAN_ANOMALY": "39.2806",
    "EPHEMERIS_TYPE": "0",
    "CLASSIFICATION_TYPE": "U",
    "NORAD_CAT_ID": "13381",
    "ELEMENT_SET_NO": "999",
    "REV_AT_EPOCH": "98120",
    "BSTAR": "0.00019770046000",
    "MEAN_MOTION_DOT": "0.00000012",
    "MEAN_MOTION_DDOT": "0.0000000000000",
    "SEMIMAJOR_AXIS": "7862.815",
    "PERIOD": "115.645",
    "APOAPSIS": "1495.491",
    "PERIAPSIS": "1473.869",
    "OBJECT_TYPE": "PAYLOAD",
    "RCS_SIZE": "MEDIUM",
    "COUNTRY_CODE": "CIS",
    "LAUNCH_DATE": "1982-07-21",
    "SITE": "PKMTR",
    "DECAY_DATE": null,
    "FILE": "5039972",
    "GP_ID": "313159089",
    "TLE_LINE0": "0 COSMOS 1394",
    "TLE_LINE1": "1 13381U 82073G   26050.64409671  .00000012  00000-0  19770-3 0  9996",
    "TLE_LINE2": "2 13381  74.0161 304.2165 0013750 334.7849  39.2806 12.45190214981209"
  },
  {
    "CCSDS_OMM_VERS": "3.0",
    "COMMENT": "GENERATED VIA SPACE-TRACK.ORG API",
    "CREATION_DATE": "2026-02-19T17:59:09",
    "ORIGINATOR": "18 SPCS",
    "OBJECT_NAME": "ETIHAD-SAT",
    "OBJECT_ID": "2025-052S",
    "CENTER_NAME": "EARTH",
    "REF_FRAME": "TEME",
    "TIME_SYSTEM": "UTC",
    "MEAN_ELEMENT_THEORY": "SGP4",
    "EPOCH": "2026-02-19T15:27:23.995008",
    "MEAN_MOTION": "15.20954240",
    "ECCENTRICITY": "0.00050123",
    "INCLINATION": "97.4107",
    "RA_OF_ASC_NODE": "305.1075",
    "ARG_OF_PERICENTER": "174.6954",
    "MEAN_ANOMALY": "185.4335",
    "EPHEMERIS_TYPE": "0",
    "CLASSIFICATION_TYPE": "U",
    "NORAD_CAT_ID": "63226",
    "ELEMENT_SET_NO": "999",
    "REV_AT_EPOCH": "5196",
    "BSTAR": "0.00021214894000",
    "MEAN_MOTION_DOT": "0.00004630",
    "MEAN_MOTION_DDOT": "0.0000000000000",
    "SEMIMAJOR_AXIS": "6881.098",
    "PERIOD": "94.677",
    "APOAPSIS": "506.412",
    "PERIAPSIS": "499.514",
    "OBJECT_TYPE": "PAYLOAD",
    "RCS_SIZE": "LARGE",
    "COUNTRY_CODE": "UAE",
    "LAUNCH_DATE": "2025-03-15",
    "SITE": "AFWTR",
    "DECAY_DATE": null,
    "FILE": "5039972",
    "GP_ID": "313183353",
    "TLE_LINE0": "0 ETIHAD-SAT",
    "TLE_LINE1": "1 63226U 25052S   26050.64402772  .00004630  00000-0  21215-3 0  9995",
    "TLE_LINE2": "2 63226  97.4107 305.1075 0005012 174.6954 185.4335 15.20954240 51966"
  }
]